{
  "type": "FeatureCollection",
  "features": [
    {
      "type": "Feature",
      "properties": {
        "norad_id": 35989,
        "name": "COSMOS 2251 DEB",
        "group": "cosmos-2251-debris",
        "lat": -54.42618784832055,
        "lon": -105.5055310467208,
        "alt_km": 766.0833409703091,
        "timestamp": "2025-12-15T20:48:54.281331+00:00",
        "meta_object_name": "COSMOS 2251 DEB",
        "meta_object_id": "1993-036AWF",
        "meta_epoch": "2025-12-13T02:15:17.161632",
        "meta_mean_motion": 14.3710324,
        "meta_eccentricity": 0.00220362,
        "meta_inclination": 74.0383,
        "meta_ra_of_asc_node": 283.1801,
        "meta_arg_of_pericenter": 4.8698,
        "meta_mean_anomaly": 355.2666,
        "meta_ephemeris_type": 0,
        "meta_classification_type": "U",
        "meta_norad_cat_id": 35989,
        "meta_element_set_no": 999,
        "meta_rev_at_epoch": 87184,
        "meta_bstar": 0.00037396627,
        "meta_mean_motion_dot": 1.088e-05,
        "meta_mean_motion_ddot": 0,
        "tle_line1": "1 35989U 93036AWF 25347.09394863  .00001088  00000+0  37397-3 0  9996",
        "tle_line2": "2 35989  74.0383 283.1801 0022036   4.8698 355.2666 14.37103240871848"
      },
      "geometry": {
        "type": "Point",
        "coordinates": [
          -105.5055310467208,
          -54.42618784832055
        ]
      }
    },
    {
      "type": "Feature",
      "properties": {
        "norad_id": 35993,
        "name": "COSMOS 2251 DEB",
        "group": "cosmos-2251-debris",
        "lat": 39.699787095623705,
        "lon": 133.00559728952848,
        "alt_km": 653.1230266870025,
        "timestamp": "2025-12-15T20:48:54.281341+00:00",
        "meta_object_name": "COSMOS 2251 DEB",
        "meta_object_id": "1993-036AWK",
        "meta_epoch": "2025-12-13T05:55:18.939936",
        "meta_mean_motion": 14.6530961,
        "meta_eccentricity": 0.00288758,
        "meta_inclination": 74.015,
        "meta_ra_of_asc_node": 331.8205,
        "meta_arg_of_pericenter": 161.3333,
        "meta_mean_anomaly": 198.8902,
        "meta_ephemeris_type": 0,
        "meta_classification_type": "U",
        "meta_norad_cat_id": 35993,
        "meta_element_set_no": 999,
        "meta_rev_at_epoch": 60450,
        "meta_bstar": 0.0012058199,
        "meta_mean_motion_dot": 6.521e-05,
        "meta_mean_motion_ddot": 0,
        "tle_line1": "1 35993U 93036AWK 25347.24674699  .00006521  00000+0  12058-2 0  9999",
        "tle_line2": "2 35993  74.0150 331.8205 0028875 161.3333 198.8902 14.65309610604507"
      },
      "geometry": {
        "type": "Point",
        "coordinates": [
          133.00559728952848,
          39.699787095623705
        ]
      }
    },
    {
      "type": "Feature",
      "properties": {
        "norad_id": 35996,
        "name": "COSMOS 2251 DEB",
        "group": "cosmos-2251-debris",
        "lat": -2.6069608433879243,
        "lon": 96.21932915555632,
        "alt_km": 601.6057357286927,
        "timestamp": "2025-12-15T20:48:54.281351+00:00",
        "meta_object_name": "COSMOS 2251 DEB",
        "meta_object_id": "1993-036AWN",
        "meta_epoch": "2025-12-11T00:41:09.521088",
        "meta_mean_motion": 15.0906793,
        "meta_eccentricity": 0.00884253,
        "meta_inclination": 74.0157,
        "meta_ra_of_asc_node": 106.9511,
        "meta_arg_of_pericenter": 198.4339,
        "meta_mean_anomaly": 161.3644,
        "meta_ephemeris_type": 0,
        "meta_classification_type": "U",
        "meta_norad_cat_id": 35996,
        "meta_element_set_no": 999,
        "meta_rev_at_epoch": 72300,
        "meta_bstar": 0.0011651351,
        "meta_mean_motion_dot": 0.00020245,
        "meta_mean_motion_ddot": 0,
        "tle_line1": "1 35996U 93036AWN 25345.02858242  .00020245  00000+0  11651-2 0  9991",
        "tle_line2": "2 35996  74.0157 106.9511 0088425 198.4339 161.3644 15.09067930723002"
      },
      "geometry": {
        "type": "Point",
        "coordinates": [
          96.21932915555632,
          -2.6069608433879243
        ]
      }
    },
    {
      "type": "Feature",
      "properties": {
        "norad_id": 35997,
        "name": "COSMOS 2251 DEB",
        "group": "cosmos-2251-debris",
        "lat": 21.880214090615,
        "lon": -5.18712975869335,
        "alt_km": 722.5298176107326,
        "timestamp": "2025-12-15T20:48:54.281361+00:00",
        "meta_object_name": "COSMOS 2251 DEB",
        "meta_object_id": "1993-036AWP",
        "meta_epoch": "2025-12-14T22:35:08.657088",
        "meta_mean_motion": 14.51324484,
        "meta_eccentricity": 0.00157283,
        "meta_inclination": 74.0427,
        "meta_ra_of_asc_node": 183.1527,
        "meta_arg_of_pericenter": 258.4446,
        "meta_mean_anomaly": 101.495,
        "meta_ephemeris_type": 0,
        "meta_classification_type": "U",
        "meta_norad_cat_id": 35997,
        "meta_element_set_no": 999,
        "meta_rev_at_epoch": 70916,
        "meta_bstar": 0.0004756856,
        "meta_mean_motion_dot": 1.87e-05,
        "meta_mean_motion_ddot": 0,
        "tle_line1": "1 35997U 93036AWP 25348.94107242  .00001870  00000+0  47569-3 0  9994",
        "tle_line2": "2 35997  74.0427 183.1527 0015728 258.4446 101.4950 14.51324484709161"
      },
      "geometry": {
        "type": "Point",
        "coordinates": [
          -5.18712975869335,
          21.880214090615
        ]
      }
    },
    {
      "type": "Feature",
      "properties": {
        "norad_id": 36005,
        "name": "COSMOS 2251 DEB",
        "group": "cosmos-2251-debris",
        "lat": 34.784746283328865,
        "lon": -103.32035062598685,
        "alt_km": 724.6698395422718,
        "timestamp": "2025-12-15T20:48:54.281370+00:00",
        "meta_object_name": "COSMOS 2251 DEB",
        "meta_object_id": "1993-036AWX",
        "meta_epoch": "2025-12-14T01:01:05.566656",
        "meta_mean_motion": 14.47360539,
        "meta_eccentricity": 0.00618913,
        "meta_inclination": 74.027,
        "meta_ra_of_asc_node": 91.5685,
        "meta_arg_of_pericenter": 228.6373,
        "meta_mean_anomaly": 130.9454,
        "meta_ephemeris_type": 0,
        "meta_classification_type": "U",
        "meta_norad_cat_id": 36005,
        "meta_element_set_no": 999,
        "meta_rev_at_epoch": 87603,
        "meta_bstar": 0.00028384048,
        "meta_mean_motion_dot": 1.037e-05,
        "meta_mean_motion_ddot": 0,
        "tle_line1": "1 36005U 93036AWX 25348.04242554  .00001037  00000+0  28384-3 0  9991",
        "tle_line2": "2 36005  74.0270  91.5685 0061891 228.6373 130.9454 14.47360539876038"
      },
      "geometry": {
        "type": "Point",
        "coordinates": [
          -103.32035062598685,
          34.784746283328865
        ]
      }
    },
    {
      "type": "Feature",
      "properties": {
        "norad_id": 36045,
        "name": "COSMOS 2251 DEB",
        "group": "cosmos-2251-debris",
        "lat": 73.2595990835343,
        "lon": 157.26802233733838,
        "alt_km": 623.7460454977372,
        "timestamp": "2025-12-15T20:48:54.281380+00:00",
        "meta_object_name": "COSMOS 2251 DEB",
        "meta_object_id": "1993-036AXG",
        "meta_epoch": "2025-12-11T13:29:08.197152",
        "meta_mean_motion": 14.69806465,
        "meta_eccentricity": 0.00482484,
        "meta_inclination": 73.7636,
        "meta_ra_of_asc_node": 61.4081,
        "meta_arg_of_pericenter": 75.4727,
        "meta_mean_anomaly": 285.1788,
        "meta_ephemeris_type": 0,
        "meta_classification_type": "U",
        "meta_norad_cat_id": 36045,
        "meta_element_set_no": 999,
        "meta_rev_at_epoch": 8371,
        "meta_bstar": 0.0031629771,
        "meta_mean_motion_dot": 0.00019249,
        "meta_mean_motion_ddot": 0,
        "tle_line1": "1 36045U 93036AXG 25345.56190043  .00019249  00000+0  31630-2 0  9995",
        "tle_line2": "2 36045  73.7636  61.4081 0048248  75.4727 285.1788 14.69806465 83717"
      },
      "geometry": {
        "type": "Point",
        "coordinates": [
          157.26802233733838,
          73.2595990835343
        ]
      }
    },
    {
      "type": "Feature",
      "properties": {
        "norad_id": 36046,
        "name": "COSMOS 2251 DEB",
        "group": "cosmos-2251-debris",
        "lat": 69.51823143378058,
        "lon": 40.35719986455799,
        "alt_km": 642.315615073051,
        "timestamp": "2025-12-15T20:48:54.281391+00:00",
        "meta_object_name": "COSMOS 2251 DEB",
        "meta_object_id": "1993-036AXH",
        "meta_epoch": "2025-12-14T01:49:52.563648",
        "meta_mean_motion": 14.65281865,
        "meta_eccentricity": 0.00556177,
        "meta_inclination": 74.0167,
        "meta_ra_of_asc_node": 273.9225,
        "meta_arg_of_pericenter": 59.51,
        "meta_mean_anomaly": 319.3065,
        "meta_ephemeris_type": 0,
        "meta_classification_type": "U",
        "meta_norad_cat_id": 36046,
        "meta_element_set_no": 999,
        "meta_rev_at_epoch": 64023,
        "meta_bstar": 0.00073234534,
        "meta_mean_motion_dot": 4.01e-05,
        "meta_mean_motion_ddot": 0,
        "tle_line1": "1 36046U 93036AXH 25348.07630282  .00004010  00000+0  73235-3 0  9997",
        "tle_line2": "2 36046  74.0167 273.9225 0055617  59.5100 319.3065 14.65281865640238"
      },
      "geometry": {
        "type": "Point",
        "coordinates": [
          40.35719986455799,
          69.51823143378058
        ]
      }
    }
  ]
}